{
  "type": "FeatureCollection",
  "features": [
    {
      "type": "Feature",
      "properties": {
        "norad_id": 44333,
        "name": "AT&T T-16",
        "group": "intelsat",
        "lat": -0.030010708723574243,
        "lon": -87.556907304905,
        "alt_km": 35788.6665753735,
        "timestamp": "2025-12-19T18:58:41.260067+00:00",
        "meta_object_name": "AT&T T-16",
        "meta_object_id": "2019-034A",
        "meta_epoch": "2025-12-18T23:05:13.350912",
        "meta_mean_motion": 1.00272379,
        "meta_eccentricity": 9.692e-05,
        "meta_inclination": 0.0254,
        "meta_ra_of_asc_node": 65.8421,
        "meta_arg_of_pericenter": 74.8034,
        "meta_mean_anomaly": 192.6147,
        "meta_ephemeris_type": 0,
        "meta_classification_type": "U",
        "meta_norad_cat_id": 44333,
        "meta_element_set_no": 999,
        "meta_rev_at_epoch": 2382,
        "meta_bstar": 0,
        "meta_mean_motion_dot": -9.1e-07,
        "meta_mean_motion_ddot": 0,
        "tle_line1": "1 44333U 19034A   25352.96196008 -.00000091  00000+0  00000+0 0  9999",
        "tle_line2": "2 44333   0.0254  65.8421 0000969  74.8034 192.6147  1.00272379 23822"
      },
      "geometry": {
        "type": "Point",
        "coordinates": [
          -87.556907304905,
          -0.030010708723574243
        ]
      }
    },
    {
      "type": "Feature",
      "properties": {
        "norad_id": 44476,
        "name": "INTELSAT 39 (IS-39)",
        "group": "intelsat",
        "lat": 0.015855406059834702,
        "lon": 75.22748655896856,
        "alt_km": 35783.86675435906,
        "timestamp": "2025-12-19T18:58:41.260079+00:00",
        "meta_object_name": "INTELSAT 39 (IS-39)",
        "meta_object_id": "2019-049B",
        "meta_epoch": "2025-12-19T04:59:51.777888",
        "meta_mean_motion": 1.00271261,
        "meta_eccentricity": 9.845e-05,
        "meta_inclination": 0.0033,
        "meta_ra_of_asc_node": 52.437,
        "meta_arg_of_pericenter": 79.0297,
        "meta_mean_anomaly": 93.5011,
        "meta_ephemeris_type": 0,
        "meta_classification_type": "U",
        "meta_norad_cat_id": 44476,
        "meta_element_set_no": 999,
        "meta_rev_at_epoch": 2332,
        "meta_bstar": 0,
        "meta_mean_motion_dot": 5.8e-07,
        "meta_mean_motion_ddot": 0,
        "tle_line1": "1 44476U 19049B   25353.20823817  .00000058  00000+0  00000+0 0  9998",
        "tle_line2": "2 44476   0.0033  52.4370 0000984  79.0297  93.5011  1.00271261 23328"
      },
      "geometry": {
        "type": "Point",
        "coordinates": [
          75.22748655896856,
          0.015855406059834702
        ]
      }
    },
    {
      "type": "Feature",
      "properties": {
        "norad_id": 46114,
        "name": "GALAXY 30 (G-30)",
        "group": "intelsat",
        "lat": -0.02793080797195539,
        "lon": -111.69973400311896,
        "alt_km": 35777.821246649524,
        "timestamp": "2025-12-19T18:58:41.260090+00:00",
        "meta_object_name": "GALAXY 30 (G-30)",
        "meta_object_id": "2020-056C",
        "meta_epoch": "2025-12-19T05:49:17.042304",
        "meta_mean_motion": 1.00272958,
        "meta_eccentricity": 0.00020248,
        "meta_inclination": 0.0074,
        "meta_ra_of_asc_node": 313.5866,
        "meta_arg_of_pericenter": 317.7165,
        "meta_mean_anomaly": 139.123,
        "meta_ephemeris_type": 0,
        "meta_classification_type": "U",
        "meta_norad_cat_id": 46114,
        "meta_element_set_no": 999,
        "meta_rev_at_epoch": 1948,
        "meta_bstar": 0,
        "meta_mean_motion_dot": 6.1e-07,
        "meta_mean_motion_ddot": 0,
        "tle_line1": "1 46114U 20056C   25353.24255836  .00000061  00000+0  00000+0 0  9997",
        "tle_line2": "2 46114   0.0074 313.5866 0002024 317.7165 139.1230  1.00272958 19484"
      },
      "geometry": {
        "type": "Point",
        "coordinates": [
          -111.69973400311896,
          -0.02793080797195539
        ]
      }
    },
    {
      "type": "Feature",
      "properties": {
        "norad_id": 54026,
        "name": "GALAXY 33 (G-33)",
        "group": "intelsat",
        "lat": -0.0249144995738892,
        "lon": -119.70964662009072,
        "alt_km": 35780.45590378634,
        "timestamp": "2025-12-19T18:58:41.260102+00:00",
        "meta_object_name": "GALAXY 33 (G-33)",
        "meta_object_id": "2022-128A",
        "meta_epoch": "2025-12-19T05:47:02.258304",
        "meta_mean_motion": 1.00270895,
        "meta_eccentricity": 0.00015487,
        "meta_inclination": 0.0125,
        "meta_ra_of_asc_node": 31.8899,
        "meta_arg_of_pericenter": 235.7336,
        "meta_mean_anomaly": 134.2326,
        "meta_ephemeris_type": 0,
        "meta_classification_type": "U",
        "meta_norad_cat_id": 54026,
        "meta_element_set_no": 999,
        "meta_rev_at_epoch": 1193,
        "meta_bstar": 0,
        "meta_mean_motion_dot": 1.04e-06,
        "meta_mean_motion_ddot": 0,
        "tle_line1": "1 54026U 22128A   25353.24099836  .00000104  00000+0  00000+0 0  9994",
        "tle_line2": "2 54026   0.0125  31.8899 0001548 235.7336 134.2326  1.00270895 11939"
      },
      "geometry": {
        "type": "Point",
        "coordinates": [
          -119.70964662009072,
          -0.0249144995738892
        ]
      }
    },
    {
      "type": "Feature",
      "properties": {
        "norad_id": 54027,
        "name": "GALAXY 34 (G-34)",
        "group": "intelsat",
        "lat": -0.04593329386287052,
        "lon": -115.65150170415927,
        "alt_km": 35779.840818936864,
        "timestamp": "2025-12-19T18:58:41.260113+00:00",
        "meta_object_name": "GALAXY 34 (G-34)",
        "meta_object_id": "2022-128B",
        "meta_epoch": "2025-12-19T05:44:32.699904",
        "meta_mean_motion": 1.0026751,
        "meta_eccentricity": 0.00018344,
        "meta_inclination": 0.0224,
        "meta_ra_of_asc_node": 0.3163,
        "meta_arg_of_pericenter": 261.7674,
        "meta_mean_anomaly": 143.2107,
        "meta_ephemeris_type": 0,
        "meta_classification_type": "U",
        "meta_norad_cat_id": 54027,
        "meta_element_set_no": 999,
        "meta_rev_at_epoch": 1210,
        "meta_bstar": 0,
        "meta_mean_motion_dot": 0,
        "meta_mean_motion_ddot": 0,
        "tle_line1": "1 54027U 22128B   25353.23926736  .00000000  00000+0  00000+0 0  9997",
        "tle_line2": "2 54027   0.0224   0.3163 0001834 261.7674 143.2107  1.00267510 12104"
      },
      "geometry": {
        "type": "Point",
        "coordinates": [
          -115.65150170415927,
          -0.04593329386287052
        ]
      }
    },
    {
      "type": "Feature",
      "properties": {
        "norad_id": 54243,
        "name": "GALAXY 31 (G-31)",
        "group": "intelsat",
        "lat": -0.0180992482633234,
        "lon": -107.70837007552001,
        "alt_km": 35781.04674599003,
        "timestamp": "2025-12-19T18:58:41.260125+00:00",
        "meta_object_name": "GALAXY 31 (G-31)",
        "meta_object_id": "2022-153A",
        "meta_epoch": "2025-12-19T05:50:24.435168",
        "meta_mean_motion": 1.00270918,
        "meta_eccentricity": 0.00013692,
        "meta_inclination": 0.0136,
        "meta_ra_of_asc_node": 62.0368,
        "meta_arg_of_pericenter": 215.4835,
        "meta_mean_anomaly": 137.1803,
        "meta_ephemeris_type": 0,
        "meta_classification_type": "U",
        "meta_norad_cat_id": 54243,
        "meta_element_set_no": 999,
        "meta_rev_at_epoch": 532,
        "meta_bstar": 0,
        "meta_mean_motion_dot": 3.8e-07,
        "meta_mean_motion_ddot": 0,
        "tle_line1": "1 54243U 22153A   25353.24333837  .00000038  00000+0  00000+0 0  9991",
        "tle_line2": "2 54243   0.0136  62.0368 0001369 215.4835 137.1803  1.00270918  5323"
      },
      "geometry": {
        "type": "Point",
        "coordinates": [
          -107.70837007552001,
          -0.0180992482633234
        ]
      }
    },
    {
      "type": "Feature",
      "properties": {
        "norad_id": 54244,
        "name": "GALAXY 32 (G-32)",
        "group": "intelsat",
        "lat": -0.031579982716680534,
        "lon": -77.7260264244115,
        "alt_km": 35777.4674811161,
        "timestamp": "2025-12-19T18:58:41.260136+00:00",
        "meta_object_name": "GALAXY 32 (G-32)",
        "meta_object_id": "2022-153B",
        "meta_epoch": "2025-12-17T04:19:59.261664",
        "meta_mean_motion": 1.00271531,
        "meta_eccentricity": 0.000259,
        "meta_inclination": 0.0104,
        "meta_ra_of_asc_node": 339.7375,
        "meta_arg_of_pericenter": 338.8221,
        "meta_mean_anomaly": 101.4983,
        "meta_ephemeris_type": 0,
        "meta_classification_type": "U",
        "meta_norad_cat_id": 54244,
        "meta_element_set_no": 999,
        "meta_rev_at_epoch": 1131,
        "meta_bstar": 0,
        "meta_mean_motion_dot": -1.5e-06,
        "meta_mean_motion_ddot": 0,
        "tle_line1": "1 54244U 22153B   25351.18054701 -.00000150  00000+0  00000+0 0  9999",
        "tle_line2": "2 54244   0.0104 339.7375 0002590 338.8221 101.4983  1.00271531 11318"
      },
      "geometry": {
        "type": "Point",
        "coordinates": [
          -77.7260264244115,
          -0.031579982716680534
        ]
      }
    }
  ]
}